{"type": "FeatureCollection", "features": [ {"type": "Feature", "properties": {"norad_id": 30941, "name": "FENGYUN 1C DEB", "group": "fengyun-1c-debris", "lat": -30.22919727036342, "lon": 32.00711576865279, "alt_km": 784.2617873586951, "timestamp": "2025-12-26T10:30:50.547389+00:00", "meta": {"OBJECT_NAME": "FENGYUN 1C DEB", "OBJECT_ID": "1999-025BAF", "EPOCH": "2025-12-25T13:23:42.379296", "MEAN_MOTION": 14.31159802, "ECCENTRICITY": 0.0033338, "INCLINATION": 98.5451, "RA_OF_ASC_NODE": 216.1679, "ARG_OF_PERICENTER": 279.8677, "MEAN_ANOMALY": 79.8743, "EPHEMERIS_TYPE": 0, "CLASSIFICATION_TYPE": "U", "NORAD_CAT_ID": 30941, "ELEMENT_SET_NO": 999, "REV_AT_EPOCH": 96809, "BSTAR": 0.0019943, "MEAN_MOTION_DOT": 5.255e-05, "MEAN_MOTION_DDOT": 0}, "tle": {"line1": "1 30941U 99025BAF 25359.55812939  .00005255  00000+0  19943-2 0  9992", "line2": "2 30941  98.5451 216.1679 0033338 279.8677  79.8743 14.31159802968093"}}, "geometry": {"type": "Point", "coordinates": [32.00711576865279, -30.22919727036342]}}, {"type": "Feature", "properties": {"norad_id": 30942, "name": "FENGYUN 1C DEB", "group": "fengyun-1c-debris", "lat": 40.119267690710814, "lon": -174.29754845001133, "alt_km": 807.3618195551744, "timestamp": "2025-12-26T10:30:50.547401+00:00", "meta": {"OBJECT_NAME": "FENGYUN 1C DEB", "OBJECT_ID": "1999-025BAG", "EPOCH": "2025-12-25T19:10:29.152992", "MEAN_MOTION": 14.14850693, "ECCENTRICITY": 0.01380044, "INCLINATION": 98.68, "RA_OF_ASC_NODE": 357.6848, "ARG_OF_PERICENTER": 69.2087, "MEAN_ANOMALY": 54.9376, "EPHEMERIS_TYPE": 0, "CLASSIFICATION_TYPE": "U", "NORAD_CAT_ID": 30942, "ELEMENT_SET_NO": 999, "REV_AT_EPOCH": 96829, "BSTAR": 0.00024439491, "MEAN_MOTION_DOT": 4.75e-06, "MEAN_MOTION_DDOT": 0}, "tle": {"line1": "1 30942U 99025BAG 25359.79894853  .00000475  00000+0  24439-3 0  9990", "line2": "2 30942  98.6800 357.6848 0138004  69.2087  54.9376 14.14850693968299"}}, "geometry": {"type": "Point", "coordinates": [-174.29754845001133, 40.119267690710814]}}, {"type": "Feature", "properties": {"norad_id": 30943, "name": "FENGYUN 1C DEB", "group": "fengyun-1c-debris", "lat": -33.76956867133482, "lon": 19.87498851620043, "alt_km": 867.0456718451169, "timestamp": "2025-12-26T10:30:50.547412+00:00", "meta": {"OBJECT_NAME": "FENGYUN 1C DEB", "OBJECT_ID": "1999-025BAH", "EPOCH": "2025-12-26T00:25:01.708032", "MEAN_MOTION": 14.04501563, "ECCENTRICITY": 0.0050601, "INCLINATION": 98.7971, "RA_OF_ASC_NODE": 13.524, "ARG_OF_PERICENTER": 29.176, "MEAN_ANOMALY": 331.2217, "EPHEMERIS_TYPE": 0, "CLASSIFICATION_TYPE": "U", "NORAD_CAT_ID": 30943, "ELEMENT_SET_NO": 999, "REV_AT_EPOCH": 95928, "BSTAR": 0.00015996, "MEAN_MOTION_DOT": 2.16e-06, "MEAN_MOTION_DDOT": 0}, "tle": {"line1": "1 30943U 99025BAH 25360.01738088  .00000216  00000+0  15996-3 0  9996", "line2": "2 30943  98.7971  13.5240 0050601  29.1760 331.2217 14.04501563959285"}}, "geometry": {"type": "Point", "coordinates": [19.87498851620043, -33.76956867133482]}}, {"type": "Feature", "properties": {"norad_id": 30944, "name": "FENGYUN 1C DEB", "group": "fengyun-1c-debris", "lat": -11.616336154266211, "lon": 58.71555037211656, "alt_km": 686.1686427392715, "timestamp": "2025-12-26T10:30:50.547421+00:00", "meta": {"OBJECT_NAME": "FENGYUN 1C DEB", "OBJECT_ID": "1999-025BAJ", "EPOCH": "2025-12-21T22:15:45.159264", "MEAN_MOTION": 14.52456444, "ECCENTRICITY": 0.01492776, "INCLINATION": 98.849, "RA_OF_ASC_NODE": 52.1254, "ARG_OF_PERICENTER": 73.0628, "MEAN_ANOMALY": 105.9233, "EPHEMERIS_TYPE": 0, "CLASSIFICATION_TYPE": "U", "NORAD_CAT_ID": 30944, "ELEMENT_SET_NO": 999, "REV_AT_EPOCH": 99209, "BSTAR": 0.00012945518, "MEAN_MOTION_DOT": 5.54e-06, "MEAN_MOTION_DDOT": 0}, "tle": {"line1": "1 30944U 99025BAJ 25355.92760601  .00000554  00000+0  12946-3 0  9994", "line2": "2 30944  98.8490  52.1254 0149277  73.0628 105.9233 14.52456444992096"}}, "geometry": {"type": "Point", "coordinates": [58.71555037211656, -11.616336154266211]}}, {"type": "Feature", "properties": {"norad_id": 30945, "name": "FENGYUN 1C DEB", "group": "fengyun-1c-debris", "lat": 63.43874783238058, "lon": -9.16445845392903, "alt_km": 777.0703894819717, "timestamp": "2025-12-26T10:30:50.547431+00:00", "meta": {"OBJECT_NAME": "FENGYUN 1C DEB", "OBJECT_ID": "1999-025BAK", "EPOCH": "2025-12-23T19:13:25.802112", "MEAN_MOTION": 14.29800555, "ECCENTRICITY": 0.0030348, "INCLINATION": 99.3905, "RA_OF_ASC_NODE": 7.3251, "ARG_OF_PERICENTER": 6.9544, "MEAN_ANOMALY": 171.4141, "EPHEMERIS_TYPE": 0, "CLASSIFICATION_TYPE": "U", "NORAD_CAT_ID": 30945, "ELEMENT_SET_NO": 999, "REV_AT_EPOCH": 96595, "BSTAR": 0.0016300295, "MEAN_MOTION_DOT": 4.161e-05, "MEAN_MOTION_DDOT": 0}, "tle": {"line1": "1 30945U 99025BAK 25357.80099308  .00004161  00000+0  16300-2 0  9998", "line2": "2 30945  99.3905   7.3251 0030348   6.9544 171.4141 14.29800555965954"}}, "geometry": {"type": "Point", "coordinates": [-9.16445845392903, 63.43874783238058]}}, {"type": "Feature", "properties": {"norad_id": 30946, "name": "FENGYUN 1C DEB", "group": "fengyun-1c-debris", "lat": -26.754591447606554, "lon": -68.02702604735066, "alt_km": 700.0266700308912, "timestamp": "2025-12-26T10:30:50.547441+00:00", "meta": {"OBJECT_NAME": "FENGYUN 1C DEB", "OBJECT_ID": "1999-025BAL", "EPOCH": "2025-12-23T07:12:30.483648", "MEAN_MOTION": 14.48204965, "ECCENTRICITY": 0.00896134, "INCLINATION": 99.0402, "RA_OF_ASC_NODE": 113.2219, "ARG_OF_PERICENTER": 161.5838, "MEAN_ANOMALY": 255.1727, "EPHEMERIS_TYPE": 0, "CLASSIFICATION_TYPE": "U", "NORAD_CAT_ID": 30946, "ELEMENT_SET_NO": 999, "REV_AT_EPOCH": 98504, "BSTAR": 0.00071944578, "MEAN_MOTION_DOT": 2.77e-05, "MEAN_MOTION_DDOT": 0}, "tle": {"line1": "1 30946U 99025BAL 25357.30035282  .00002770  00000+0  71945-3 0  9996", "line2": "2 30946  99.0402 113.2219 0089613 161.5838 255.1727 14.48204965985044"}}, "geometry": {"type": "Point", "coordinates": [-68.02702604735066, -26.754591447606554]}}, {"type": "Feature", "properties": {"norad_id": 30947, "name": "FENGYUN 1C DEB", "group": "fengyun-1c-debris", "lat": 39.79309760886454, "lon": 77.8439326417327, "alt_km": 734.7369418746284, "timestamp": "2025-12-26T10:30:50.547451+00:00", "meta": {"OBJECT_NAME": "FENGYUN 1C DEB", "OBJECT_ID": "1999-025BAM", "EPOCH": "2025-12-25T22:10:16.008096", "MEAN_MOTION": 14.38063369, "ECCENTRICITY": 0.0095954, "INCLINATION": 98.8084, "RA_OF_ASC_NODE": 249.8958, "ARG_OF_PERICENTER": 208.3345, "MEAN_ANOMALY": 151.2603, "EPHEMERIS_TYPE": 0, "CLASSIFICATION_TYPE": "U", "NORAD_CAT_ID": 30947, "ELEMENT_SET_NO": 999, "REV_AT_EPOCH": 98682, "BSTAR": 0.00024982, "MEAN_MOTION_DOT": 7.49e-06, "MEAN_MOTION_DDOT": 0}, "tle": {"line1": "1 30947U 99025BAM 25359.92379639  .00000749  00000+0  24982-3 0  9997", "line2": "2 30947  98.8084 249.8958 0095954 208.3345 151.2603 14.38063369986828"}}, "geometry": {"type": "Point", "coordinates": [77.8439326417327, 39.79309760886454]}}, {"type": "Feature", "properties": {"norad_id": 30949, "name": "FENGYUN 1C DEB", "group": "fengyun-1c-debris", "lat": -32.25846067101758, "lon": -0.02917739487263051, "alt_km": 805.158853136073, "timestamp": "2025-12-26T10:30:50.547464+00:00", "meta": {"OBJECT_NAME": "FENGYUN 1C DEB", "OBJECT_ID": "1999-025BAP", "EPOCH": "2025-12-25T22:54:56.231136", "MEAN_MOTION": 14.14061683, "ECCENTRICITY": 0.011606, "INCLINATION": 98.6985, "RA_OF_ASC_NODE": 353.9555, "ARG_OF_PERICENTER": 271.8268, "MEAN_ANOMALY": 115.7336, "EPHEMERIS_TYPE": 0, "CLASSIFICATION_TYPE": "U", "NORAD_CAT_ID": 30949, "ELEMENT_SET_NO": 999, "REV_AT_EPOCH": 96703, "BSTAR": 0.00023744, "MEAN_MOTION_DOT": 4.38e-06, "MEAN_MOTION_DDOT": 0}, "tle": {"line1": "1 30949U 99025BAP 25359.95481749  .00000438  00000+0  23744-3 0  9998", "line2": "2 30949  98.6985 353.9555 0116060 271.8268 115.7336 14.14061683967030"}}, "geometry": {"type": "Point", "coordinates": [-0.02917739487263051, -32.25846067101758]}}, {"type": "Feature", "properties": {"norad_id": 30954, "name": "FENGYUN 1C DEB", "group": "fengyun-1c-debris", "lat": 51.80872983235053, "lon": 88.99403102172063, "alt_km": 845.6468091669649, "timestamp": "2025-12-26T10:30:50.547474+00:00", "meta": {"OBJECT_NAME": "FENGYUN 1C DEB", "OBJECT_ID": "1999-025BAU", "EPOCH": "2025-12-25T18:00:45.843840", "MEAN_MOTION": 14.14991302, "ECCENTRICITY": 0.01288503, "INCLINATION": 98.7119, "RA_OF_ASC_NODE": 99.5621, "ARG_OF_PERICENTER": 150.469, "MEAN_ANOMALY": 3.3144, "EPHEMERIS_TYPE": 0, "CLASSIFICATION_TYPE": "U", "NORAD_CAT_ID": 30954, "ELEMENT_SET_NO": 999, "REV_AT_EPOCH": 96571, "BSTAR": 0.0012210607, "MEAN_MOTION_DOT": 2.519e-05, "MEAN_MOTION_DDOT": 0}, "tle": {"line1": "1 30954U 99025BAU 25359.75053060  .00002519  00000+0  12211-2 0  9991", "line2": "2 30954  98.7119  99.5621 0128850 150.4690   3.3144 14.14991302965716"}}, "geometry": {"type": "Point", "coordinates": [88.99403102172063, 51.80872983235053]}}, {"type": "Feature", "properties": {"norad_id": 30956, "name": "FENGYUN 1C DEB", "group": "fengyun-1c-debris", "lat": 15.101054144517592, "lon": 31.801949086658333, "alt_km": 834.5991897119038, "timestamp": "2025-12-26T10:30:50.547486+00:00", "meta": {"OBJECT_NAME": "FENGYUN 1C DEB", "OBJECT_ID": "1999-025BAW", "EPOCH": "2025-12-26T02:13:11.801280", "MEAN_MOTION": 14.14253918, "ECCENTRICITY": 0.0049198, "INCLINATION": 98.7599, "RA_OF_ASC_NODE": 33.8477, "ARG_OF_PERICENTER": 304.1342, "MEAN_ANOMALY": 112.2138, "EPHEMERIS_TYPE": 0, "CLASSIFICATION_TYPE": "U", "NORAD_CAT_ID": 30956, "ELEMENT_SET_NO": 999, "REV_AT_EPOCH": 96496, "BSTAR": 0.0009001, "MEAN_MOTION_DOT": 1.694e-05, "MEAN_MOTION_DDOT": 0}, "tle": {"line1": "1 30956U 99025BAW 25360.09249770  .00001694  00000+0  90010-3 0  9994", "line2": "2 30956  98.7599  33.8477 0049198 304.1342 112.2138 14.14253918964962"}}, "geometry": {"type": "Point", "coordinates": [31.801949086658333, 15.101054144517592]}}]}